{
  "norad_id": 62499,
  "name": "STARLINK-32714",
  "history": [
    {
      "epoch": "2026-03-28T15:02:30.538176Z",
      "apogee_km": 483.8591846659665,
      "perigee_km": 482.07255347885985,
      "latitude_deg": 4.139972216258381e-05,
      "longitude_deg": 130.70762049275424,
      "height_km": 482.74356378486266,
      "semi_major_axis_km": 6861.102869072412,
      "eccentricity": 0.0001302,
      "inclination_deg": 42.9993,
      "raan_deg": 182.3793,
      "arg_perigee_deg": 269.9256,
      "mean_anomaly_deg": 90.1447,
      "mean_motion_rev_day": 15.27607795
    },
    {
      "epoch": "2026-03-29T22:25:39.133344Z",
      "apogee_km": 483.5876428220881,
      "perigee_km": 482.49671533261517,
      "latitude_deg": -2.8785157684740976e-05,
      "longitude_deg": 11.248267021790342,
      "height_km": 482.5712891965405,
      "semi_major_axis_km": 6861.179179077351,
      "eccentricity": 7.95e-05,
      "inclination_deg": 43.0038,
      "raan_deg": 174.9948,
      "arg_perigee_deg": 296.9779,
      "mean_anomaly_deg": 63.0991,
      "mean_motion_rev_day": 15.2758231
    },
    {
      "epoch": "2026-03-30T14:07:12.794592Z",
      "apogee_km": 483.9020219842823,
      "perigee_km": 482.0344291418842,
      "latitude_deg": -4.128709486411507e-05,
      "longitude_deg": 131.52012358175793,
      "height_km": 482.59719041879714,
      "semi_major_axis_km": 6861.105225563083,
      "eccentricity": 0.0001361,
      "inclination_deg": 43.0011,
      "raan_deg": 171.3014,
      "arg_perigee_deg": 279.1092,
      "mean_anomaly_deg": 80.9605,
      "mean_motion_rev_day": 15.27607008
    },
    {
      "epoch": "2026-03-31T13:39:33.155136Z",
      "apogee_km": 483.89518879539446,
      "perigee_km": 482.02485374739535,
      "latitude_deg": -4.441095954444002e-05,
      "longitude_deg": 131.92787399678824,
      "height_km": 482.68802622942906,
      "semi_major_axis_km": 6861.097021271395,
      "eccentricity": 0.0001363,
      "inclination_deg": 43.0016,
      "raan_deg": 165.7607,
      "arg_perigee_deg": 272.9944,
      "mean_anomaly_deg": 87.0751,
      "mean_motion_rev_day": 15.27609748
    }
  ]
}